1 44771U 19074BL  23355.91035488  .00009478  00000-0  65389-3 0  9992
2 44771  53.0538 257.3693 0001575 107.5976 252.5185 15.06424872226295
1 44771U 19074BL  23356.04304637  .00011981  00000-0  82114-3 0  9999
2 44771  53.0529 256.7776 0001396  92.2398 267.8750 15.06431439226316
1 44771U 19074BL  23356.04304637  .00011981  00000-0  82114-3 0  9999
2 44771  53.0529 256.7776 0001396  92.2398 267.8750 15.06431439226484
1 44771U 19074BL  23356.90555837  .00004197  00000-0  30042-3 0  9998
2 44771  53.0532 252.9071 0001484 111.7190 248.3957 15.06403942226446
1 44771U 19074BL  23357.10460139  .00001163  00000-0  97004-4 0  9993
2 44771  53.0532 252.0161 0001432 108.8650 251.2494 15.06393741226475
1 44771U 19074BL  23357.10460139  .00001163  00000-0  97004-4 0  9993
2 44771  53.0532 252.0161 0001432 108.8650 251.2494 15.06393741226644
1 44771U 19074BL  23357.90076416  .00006847  00000-0  47804-3 0  9998
2 44771  53.0529 248.4435 0001357 108.2406 251.8731 15.06403096226591
1 44771U 19074BL  23358.09980299  .00009668  00000-0  66683-3 0  9992
2 44771  53.0535 247.5445 0001514  92.7416 267.3746 15.06410927226625
1 44771U 19074BL  23358.09980299  .00009668  00000-0  66683-3 0  9992
2 44771  53.0535 247.5445 0001514  92.7416 267.3746 15.06410927226793
1 44771U 19074BL  23358.82962014  .00001986  00000-0  15219-3 0  9992
2 44771  53.0546 244.2605 0002124 122.0849 238.0346 15.06402207226908
1 44771U 19074BL  23358.89597005  .00003307  00000-0  24079-3 0  9996
2 44771  53.0532 243.9703 0001485  99.4302 260.6854 15.06399385226747
1 44771U 19074BL  23358.96231588  .00003558  00000-0  25763-3 0  9994
2 44771  53.0540 243.6688 0001532 107.1519 252.9637 15.06400096226751
1 44771U 19074BL  23359.89116889  .00008057  00000-0  55898-3 0  9994
2 44771  53.0537 239.5015 0001463 103.7315 256.3837 15.06410255226897
1 44771U 19074BL  23359.89116889  .00008057  00000-0  55898-3 0  9994
2 44771  53.0537 239.5015 0001463 103.7315 256.3837 15.06410255227067
1 44771U 19074BL  23360.82002903 -.00003017  00000-0 -18377-3 0  9994
2 44771  53.0533 235.3320 0001399  93.2866 266.8283 15.06389314227206
1 44771U 19074BL  23360.88637568 -.00001785  00000-0 -10097-3 0  9992
2 44771  53.0532 235.0342 0001545  98.4173 261.6991 15.06391529227049
1 44771U 19074BL  23361.88158628  .00006238  00000-0  43737-3 0  9991
2 44771  53.0523 230.5679 0001482  90.1419 269.9740 15.06393209227190
1 44771U 19074BL  23362.08062746  .00004438  00000-0  31672-3 0  9994
2 44771  53.0520 229.6744 0001472  89.9085 270.2072 15.06393350227227
1 44771U 19074BL  23362.08062746  .00004438  00000-0  31672-3 0  9994
2 44771  53.0520 229.6744 0001472  89.9085 270.2072 15.06393350227395
1 44771U 19074BL  23362.94313587  .00004598  00000-0  32737-3 0  9991
2 44771  53.0518 225.8027 0001487  90.4179 269.6980 15.06401485227356
1 44771U 19074BL  23363.00948254  .00004551  00000-0  32417-3 0  9998
2 44771  53.0517 225.5048 0001483  90.2591 269.8568 15.06402015227362
1 44771U 19074BL  23363.80565149 -.00000442  00000-0 -10774-4 0  9994
2 44771  53.0517 221.9300 0001553  92.0495 268.0671 15.06389729227658
1 44771U 19074BL  23363.87200094 -.00000631  00000-0 -23481-4 0  9995
2 44771  53.0524 221.6320 0001522  90.5514 269.5650 15.06387542227492
1 44771U 19074BL  23364.60181752  .00000023  00000-0  20418-4 0  9996
2 44771  53.0536 218.3520 0001582  91.1641 268.9529 15.06392567227608
1 44771U 19074BL  23364.86720144  .00001626  00000-0  12805-3 0  9998
2 44771  53.0517 217.1645 0001552  95.5108 264.6058 15.06398488227647
1 44771U 19074BL  23364.86720144  .00001626  00000-0  12805-3 0  9998
2 44771  53.0517 217.1645 0001552  95.5108 264.6058 15.06398488227816
